{
  "type": "FeatureCollection",
  "features": [
    {
      "type": "Feature",
      "properties": {
        "norad_id": 66989,
        "name": "CZ-4B R/B",
        "group": "last-30-days",
        "lat": -66.772872895043,
        "lon": -134.4007179646525,
        "alt_km": 340.3560053775882,
        "timestamp": "2025-12-23T09:49:05.799641+00:00",
        "meta_object_name": "CZ-4B R/B",
        "meta_object_id": "2025-289B",
        "meta_epoch": "2025-12-22T08:16:26.469984",
        "meta_mean_motion": 15.69480483,
        "meta_eccentricity": 0.01418055,
        "meta_inclination": 97.5241,
        "meta_ra_of_asc_node": 62.393,
        "meta_arg_of_pericenter": 326.5313,
        "meta_mean_anomaly": 32.7045,
        "meta_ephemeris_type": 0,
        "meta_classification_type": "U",
        "meta_norad_cat_id": 66989,
        "meta_element_set_no": 999,
        "meta_rev_at_epoch": 207,
        "meta_bstar": 0.00063039191,
        "meta_mean_motion_dot": 0.00133039,
        "meta_mean_motion_ddot": 7.36681e-06,
        "tle_line1": "1 66989U 25289B   25356.34475081  .00133039  73668-5  63039-3 0  9995",
        "tle_line2": "2 66989  97.5241  62.3930 0141805 326.5313  32.7045 15.69480483  2071"
      },
      "geometry": {
        "type": "Point",
        "coordinates": [
          -134.4007179646525,
          -66.772872895043
        ]
      }
    },
    {
      "type": "Feature",
      "properties": {
        "norad_id": 66990,
        "name": "TJS-22",
        "group": "last-30-days",
        "lat": 0.6801182013204863,
        "lon": -54.072946974498024,
        "alt_km": 35774.71887718307,
        "timestamp": "2025-12-23T09:49:05.799653+00:00",
        "meta_object_name": "TJS-22",
        "meta_object_id": "2025-290A",
        "meta_epoch": "2025-12-22T08:32:31.305696",
        "meta_mean_motion": 1.00271081,
        "meta_eccentricity": 0.00034313,
        "meta_inclination": 1.9644,
        "meta_ra_of_asc_node": 285.0284,
        "meta_arg_of_pericenter": 342.6366,
        "meta_mean_anomaly": 18.08,
        "meta_ephemeris_type": 0,
        "meta_classification_type": "U",
        "meta_norad_cat_id": 66990,
        "meta_element_set_no": 999,
        "meta_rev_at_epoch": 25,
        "meta_bstar": 0,
        "meta_mean_motion_dot": 1.7e-07,
        "meta_mean_motion_ddot": 0,
        "tle_line1": "1 66990U 25290A   25356.35591789  .00000017  00000+0  00000+0 0  9992",
        "tle_line2": "2 66990   1.9644 285.0284 0003431 342.6366  18.0800  1.00271081   250"
      },
      "geometry": {
        "type": "Point",
        "coordinates": [
          -54.072946974498024,
          0.6801182013204863
        ]
      }
    },
    {
      "type": "Feature",
      "properties": {
        "norad_id": 66991,
        "name": "CZ-3B R/B",
        "group": "last-30-days",
        "lat": 18.62941587226701,
        "lon": -24.13556282216395,
        "alt_km": 21469.202179398246,
        "timestamp": "2025-12-23T09:49:05.799671+00:00",
        "meta_object_name": "CZ-3B R/B",
        "meta_object_id": "2025-290B",
        "meta_epoch": "2025-12-15T17:23:33.043200",
        "meta_mean_motion": 2.38388611,
        "meta_eccentricity": 0.7240884,
        "meta_inclination": 28.4636,
        "meta_ra_of_asc_node": 300.4666,
        "meta_arg_of_pericenter": 182.7002,
        "meta_mean_anomaly": 168.625,
        "meta_ephemeris_type": 0,
        "meta_classification_type": "U",
        "meta_norad_cat_id": 66991,
        "meta_element_set_no": 999,
        "meta_rev_at_epoch": 16,
        "meta_bstar": 0.00075879,
        "meta_mean_motion_dot": 0.00057911,
        "meta_mean_motion_ddot": -2.0514e-07,
        "tle_line1": "1 66991U 25290B   25349.72468800  .00057911 -20514-6  75879-3 0  9998",
        "tle_line2": "2 66991  28.4636 300.4666 7240884 182.7002 168.6250  2.38388611   165"
      },
      "geometry": {
        "type": "Point",
        "coordinates": [
          -24.13556282216395,
          18.62941587226701
        ]
      }
    },
    {
      "type": "Feature",
      "properties": {
        "norad_id": 66993,
        "name": "2025-292A",
        "group": "last-30-days",
        "lat": 31.020039172199258,
        "lon": -105.5070973270457,
        "alt_km": 550.3073518320716,
        "timestamp": "2025-12-23T09:49:05.799682+00:00",
        "meta_object_name": "2025-292A",
        "meta_object_id": "2025-292A",
        "meta_epoch": "2025-12-22T21:59:08.810880",
        "meta_mean_motion": 15.04565568,
        "meta_eccentricity": 0.00143062,
        "meta_inclination": 97.6508,
        "meta_ra_of_asc_node": 69.3683,
        "meta_arg_of_pericenter": 235.2067,
        "meta_mean_anomaly": 124.7814,
        "meta_ephemeris_type": 0,
        "meta_classification_type": "U",
        "meta_norad_cat_id": 66993,
        "meta_element_set_no": 999,
        "meta_rev_at_epoch": 192,
        "meta_bstar": 0.00029485913,
        "meta_mean_motion_dot": 4.083e-05,
        "meta_mean_motion_ddot": 0,
        "tle_line1": "1 66993U 25292A   25356.91607420  .00004083  00000+0  29486-3 0  9999",
        "tle_line2": "2 66993  97.6508  69.3683 0014306 235.2067 124.7814 15.04565568  1928"
      },
      "geometry": {
        "type": "Point",
        "coordinates": [
          -105.5070973270457,
          31.020039172199258
        ]
      }
    },
    {
      "type": "Feature",
      "properties": {
        "norad_id": 66994,
        "name": "2025-292B",
        "group": "last-30-days",
        "lat": 28.931703796215555,
        "lon": -105.87965400390121,
        "alt_km": 550.1926367526385,
        "timestamp": "2025-12-23T09:49:05.799692+00:00",
        "meta_object_name": "2025-292B",
        "meta_object_id": "2025-292B",
        "meta_epoch": "2025-12-22T21:58:36.505056",
        "meta_mean_motion": 15.0461152,
        "meta_eccentricity": 0.0014095,
        "meta_inclination": 97.6517,
        "meta_ra_of_asc_node": 69.3701,
        "meta_arg_of_pericenter": 235.4291,
        "meta_mean_anomaly": 124.5606,
        "meta_ephemeris_type": 0,
        "meta_classification_type": "U",
        "meta_norad_cat_id": 66994,
        "meta_element_set_no": 999,
        "meta_rev_at_epoch": 192,
        "meta_bstar": 0.00035915994,
        "meta_mean_motion_dot": 4.993e-05,
        "meta_mean_motion_ddot": 0,
        "tle_line1": "1 66994U 25292B   25356.91570029  .00004993  00000+0  35916-3 0  9999",
        "tle_line2": "2 66994  97.6517  69.3701 0014095 235.4291 124.5606 15.04611520  1923"
      },
      "geometry": {
        "type": "Point",
        "coordinates": [
          -105.87965400390121,
          28.931703796215555
        ]
      }
    },
    {
      "type": "Feature",
      "properties": {
        "norad_id": 66995,
        "name": "2025-292C",
        "group": "last-30-days",
        "lat": 28.15796079950703,
        "lon": -106.01637468652142,
        "alt_km": 550.1302580124275,
        "timestamp": "2025-12-23T09:49:05.799703+00:00",
        "meta_object_name": "2025-292C",
        "meta_object_id": "2025-292C",
        "meta_epoch": "2025-12-22T21:58:24.749472",
        "meta_mean_motion": 15.04640737,
        "meta_eccentricity": 0.00144025,
        "meta_inclination": 97.6507,
        "meta_ra_of_asc_node": 69.369,
        "meta_arg_of_pericenter": 235.8096,
        "meta_mean_anomaly": 124.1766,
        "meta_ephemeris_type": 0,
        "meta_classification_type": "U",
        "meta_norad_cat_id": 66995,
        "meta_element_set_no": 999,
        "meta_rev_at_epoch": 192,
        "meta_bstar": 0.00039933125,
        "meta_mean_motion_dot": 5.564e-05,
        "meta_mean_motion_ddot": 0,
        "tle_line1": "1 66995U 25292C   25356.91556423  .00005564  00000+0  39933-3 0  9990",
        "tle_line2": "2 66995  97.6507  69.3690 0014402 235.8096 124.1766 15.04640737  1924"
      },
      "geometry": {
        "type": "Point",
        "coordinates": [
          -106.01637468652142,
          28.15796079950703
        ]
      }
    },
    {
      "type": "Feature",
      "properties": {
        "norad_id": 66996,
        "name": "2025-292D",
        "group": "last-30-days",
        "lat": 26.297469745310675,
        "lon": -106.33392242453212,
        "alt_km": 550.5666818277377,
        "timestamp": "2025-12-23T09:49:05.799712+00:00",
        "meta_object_name": "2025-292D",
        "meta_object_id": "2025-292D",
        "meta_epoch": "2025-12-22T21:57:55.502208",
        "meta_mean_motion": 15.0466027,
        "meta_eccentricity": 0.00135285,
        "meta_inclination": 97.6502,
        "meta_ra_of_asc_node": 69.3685,
        "meta_arg_of_pericenter": 238.3806,
        "meta_mean_anomaly": 121.6101,
        "meta_ephemeris_type": 0,
        "meta_classification_type": "U",
        "meta_norad_cat_id": 66996,
        "meta_element_set_no": 999,
        "meta_rev_at_epoch": 192,
        "meta_bstar": 0.00026456941,
        "meta_mean_motion_dot": 3.665e-05,
        "meta_mean_motion_ddot": 0,
        "tle_line1": "1 66996U 25292D   25356.91522572  .00003665  00000+0  26457-3 0  9996",
        "tle_line2": "2 66996  97.6502  69.3685 0013528 238.3806 121.6101 15.04660270  1928"
      },
      "geometry": {
        "type": "Point",
        "coordinates": [
          -106.33392242453212,
          26.297469745310675
        ]
      }
    }
  ]
}